0 COSMOS 2189
1 21978U 92030C   13281.18932633  .00000012  00000-0  17543-3 0  7513
2 21978 074.0021 258.3494 0040755 207.1327 218.1820 12.53957363977369
0 COSMOS 2189
1 21978U 92030C   13283.36299958 -.00000018  00000-0 -13606-4 0  7527
2 21978 074.0022 255.4342 0040732 203.8676 310.6588 12.53957684977630
0 COSMOS 2189
1 21978U 92030C   13285.66677271 -.00000041  00000-0 -15555-3 0  7531
2 21978 074.0026 252.3446 0040696 200.3970 270.4500 12.53958029977926
0 COSMOS 2189
1 21978U 92030C   13287.89002478 -.00000030  00000-0 -86624-4 0  7544
2 21978 074.0031 249.3630 0040636 197.0100 226.7895 12.53957961978201
0 COSMOS 2189
1 21978U 92030C   13290.36540755  .00000001  00000-0  10672-3 0  7551
2 21978 074.0036 246.0435 0040602 193.3017 241.2510 12.53957567978514
0 COSMOS 2189
1 21978U 92030C   13292.36948464  .00000013  00000-0  17934-3 0  7564
2 21978 074.0037 243.3563 0040551 190.2409 288.1832 12.53957452978768
0 COSMOS 2189
1 21978U 92030C   13294.82470949  .00000000  00000-0  10268-3 0  7575
2 21978 074.0037 240.0643 0040512 186.5080 211.6964 12.53957689979075
